[{"OBJECT_NAME":"GHGSAT-C13","OBJECT_ID":"2025-135W","EPOCH":"2026-03-09T21:19:51.572640","MEAN_MOTION":15.20248668,"ECCENTRICITY":0.00027022,"INCLINATION":97.4646,"RA_OF_ASC_NODE":185.1231,"ARG_OF_PERICENTER":97.1001,"MEAN_ANOMALY":263.0541,"EPHEMERIS_TYPE":0,"CLASSIFICATION_TYPE":"U","NORAD_CAT_ID":64548,"ELEMENT_SET_NO":999,"REV_AT_EPOCH":3976,"BSTAR":0.00021160273,"MEAN_MOTION_DOT":4.522e-5,"MEAN_MOTION_DDOT":0},{"OBJECT_NAME":"KIRARI (OICETS)","OBJECT_ID":"2005-031A","EPOCH":"2026-03-09T15:02:18.043872","MEAN_MOTION":15.22934858,"ECCENTRICITY":0.0019783,"INCLINATION":98.0768,"RA_OF_ASC_NODE":316.1697,"ARG_OF_PERICENTER":5.9068,"MEAN_ANOMALY":354.2396,"EPHEMERIS_TYPE":0,"CLASSIFICATION_TYPE":"U","NORAD_CAT_ID":28809,"ELEMENT_SET_NO":999,"REV_AT_EPOCH":12344,"BSTAR":0.00027776,"MEAN_MOTION_DOT":6.472e-5,"MEAN_MOTION_DDOT":0}]
